[{"OBJECT_NAME":"CSTP 1.2 (STC 1.2)","OBJECT_ID":"2023-091W","EPOCH":"2026-03-09T23:12:27.821952","MEAN_MOTION":15.2718076,"ECCENTRICITY":0.00204388,"INCLINATION":97.5258,"RA_OF_ASC_NODE":134.3262,"ARG_OF_PERICENTER":84.9592,"MEAN_ANOMALY":275.3979,"EPHEMERIS_TYPE":0,"CLASSIFICATION_TYPE":"U","NORAD_CAT_ID":57186,"ELEMENT_SET_NO":999,"REV_AT_EPOCH":14930,"BSTAR":0.00043035718,"MEAN_MOTION_DOT":0.00011466,"MEAN_MOTION_DDOT":0},{"OBJECT_NAME":"TITAN 3C TRANSTAGE DEB","OBJECT_ID":"1965-082EY","EPOCH":"2026-03-09T01:33:52.493760","MEAN_MOTION":15.22433287,"ECCENTRICITY":0.00129834,"INCLINATION":32.0932,"RA_OF_ASC_NODE":327.1819,"ARG_OF_PERICENTER":169.7698,"MEAN_ANOMALY":190.323,"EPHEMERIS_TYPE":0,"CLASSIFICATION_TYPE":"U","NORAD_CAT_ID":1883,"ELEMENT_SET_NO":999,"REV_AT_EPOCH":25002,"BSTAR":0.00039349355,"MEAN_MOTION_DOT":9.436e-5,"MEAN_MOTION_DDOT":0}]
